[
    {
        "Altitude(m)": 604983.052844904,
        "Argument of Periapsis(deg)": 0.0,
        "Eccentricity": 0.0,
        "Inclination(deg)": 60.0,
        "Latitude(deg)": -0.09254408452572477,
        "Longitude(deg)": 70.0839164571648,
        "Mean Anomaly(deg)": -180.0,
        "RAAN(deg)": 350.0,
        "Satellite Name": "Test1 1551",
        "Satellite Number": 1551,
        "Semi-Major Axis(m)": 6980739.136638005,
        "Time(s)": 0
    },
    {
        "Altitude(m)": 605055.331578401,
        "Argument of Periapsis(deg)": 0.00010418945913296404,
        "Eccentricity": 0.0,
        "Inclination(deg)": 60.0,
        "Latitude(deg)": -0.6329537951755402,
        "Longitude(deg)": 70.3520416913238,
        "Mean Anomaly(deg)": -179.37989385453815,
        "RAAN(deg)": 349.99957995086027,
        "Satellite Name": "Test1 1551",
        "Satellite Number": 1551,
        "Semi-Major Axis(m)": 6980739.136638005,
        "Time(s)": 10
    }
]